{"type": "FeatureCollection", "features": [ {"type": "Feature", "properties": {"norad_id": 17070, "name": "POLAR BEAR", "group": "nnss", "lat": 78.89976010153508, "lon": -174.38230285578538, "alt_km": 947.9794949387178, "timestamp": "2025-12-15T10:55:21.411343+00:00", "meta": {"OBJECT_NAME": "POLAR BEAR", "OBJECT_ID": "1986-088A", "EPOCH": "2025-12-14T22:53:11.287104", "MEAN_MOTION": 13.75251121, "ECCENTRICITY": 0.00410933, "INCLINATION": 89.6172, "RA_OF_ASC_NODE": 183.6852, "ARG_OF_PERICENTER": 112.8484, "MEAN_ANOMALY": 4.9347, "EPHEMERIS_TYPE": 0, "CLASSIFICATION_TYPE": "U", "NORAD_CAT_ID": 17070, "ELEMENT_SET_NO": 999, "REV_AT_EPOCH": 96009, "BSTAR": 0.00011600389, "MEAN_MOTION_DOT": 1.23e-06, "MEAN_MOTION_DDOT": 0}, "tle": {"line1": "1 17070U 86088A   25348.95360286  .00000123  00000+0  11600-3 0  9992", "line2": "2 17070  89.6172 183.6852 0041093 112.8484   4.9347 13.75251121960097"}}, "geometry": {"type": "Point", "coordinates": [-174.38230285578538, 78.89976010153508]}}, {"type": "Feature", "properties": {"norad_id": 18361, "name": "OSCAR 27", "group": "nnss", "lat": 40.241500490585274, "lon": 79.05699640107642, "alt_km": 1164.7068335508075, "timestamp": "2025-12-15T10:55:21.411366+00:00", "meta": {"OBJECT_NAME": "OSCAR 27", "OBJECT_ID": "1987-080A", "EPOCH": "2025-12-14T18:38:56.471136", "MEAN_MOTION": 13.44907109, "ECCENTRICITY": 0.01030621, "INCLINATION": 90.3743, "RA_OF_ASC_NODE": 79.3486, "ARG_OF_PERICENTER": 217.911, "MEAN_ANOMALY": 141.4751, "EPHEMERIS_TYPE": 0, "CLASSIFICATION_TYPE": "U", "NORAD_CAT_ID": 18361, "ELEMENT_SET_NO": 999, "REV_AT_EPOCH": 87584, "BSTAR": 0.00016951138, "MEAN_MOTION_DOT": 1.1e-06, "MEAN_MOTION_DDOT": 0}, "tle": {"line1": "1 18361U 87080A   25348.77704249  .00000110  00000+0  16951-3 0  9990", "line2": "2 18361  90.3743  79.3486 0103062 217.9110 141.4751 13.44907109875840"}}, "geometry": {"type": "Point", "coordinates": [79.05699640107642, 40.241500490585274]}}, {"type": "Feature", "properties": {"norad_id": 18362, "name": "OSCAR 29", "group": "nnss", "lat": 48.29107466634112, "lon": 79.41166772825774, "alt_km": 1164.764552570734, "timestamp": "2025-12-15T10:55:21.411389+00:00", "meta": {"OBJECT_NAME": "OSCAR 29", "OBJECT_ID": "1987-080B", "EPOCH": "2025-12-14T19:13:05.047968", "MEAN_MOTION": 13.44448768, "ECCENTRICITY": 0.01040327, "INCLINATION": 90.3753, "RA_OF_ASC_NODE": 79.8085, "ARG_OF_PERICENTER": 241.1833, "MEAN_ANOMALY": 241.731, "EPHEMERIS_TYPE": 0, "CLASSIFICATION_TYPE": "U", "NORAD_CAT_ID": 18362, "ELEMENT_SET_NO": 999, "REV_AT_EPOCH": 87537, "BSTAR": 0.00015108872, "MEAN_MOTION_DOT": 9.8e-07, "MEAN_MOTION_DDOT": 0}, "tle": {"line1": "1 18362U 87080B   25348.80075287  .00000098  00000+0  15109-3 0  9997", "line2": "2 18362  90.3753  79.8085 0104032 241.1833 241.7310 13.44448768875375"}}, "geometry": {"type": "Point", "coordinates": [79.41166772825774, 48.29107466634112]}}, {"type": "Feature", "properties": {"norad_id": 19070, "name": "OSCAR 23", "group": "nnss", "lat": 19.727861317492263, "lon": 16.36180959100542, "alt_km": 1281.4216021202055, "timestamp": "2025-12-15T10:55:21.411403+00:00", "meta": {"OBJECT_NAME": "OSCAR 23", "OBJECT_ID": "1988-033A", "EPOCH": "2025-12-14T15:32:59.356608", "MEAN_MOTION": 13.27787309, "ECCENTRICITY": 0.01896852, "INCLINATION": 90.3212, "RA_OF_ASC_NODE": 16.4519, "ARG_OF_PERICENTER": 174.6182, "MEAN_ANOMALY": 310.0311, "EPHEMERIS_TYPE": 0, "CLASSIFICATION_TYPE": "U", "NORAD_CAT_ID": 19070, "ELEMENT_SET_NO": 999, "REV_AT_EPOCH": 82278, "BSTAR": 0.00017534093, "MEAN_MOTION_DOT": 9.6e-07, "MEAN_MOTION_DDOT": 0}, "tle": {"line1": "1 19070U 88033A   25348.64790922  .00000096  00000+0  17534-3 0  9997", "line2": "2 19070  90.3212  16.4519 0189685 174.6182 310.0311 13.27787309822781"}}, "geometry": {"type": "Point", "coordinates": [16.36180959100542, 19.727861317492263]}}, {"type": "Feature", "properties": {"norad_id": 19071, "name": "OSCAR 32", "group": "nnss", "lat": 48.121561574045415, "lon": -163.03181335584222, "alt_km": 1023.6202768835828, "timestamp": "2025-12-15T10:55:21.411414+00:00", "meta": {"OBJECT_NAME": "OSCAR 32", "OBJECT_ID": "1988-033B", "EPOCH": "2025-12-14T14:58:17.400864", "MEAN_MOTION": 13.27954211, "ECCENTRICITY": 0.01885118, "INCLINATION": 90.3217, "RA_OF_ASC_NODE": 16.5832, "ARG_OF_PERICENTER": 161.5626, "MEAN_ANOMALY": 319.4155, "EPHEMERIS_TYPE": 0, "CLASSIFICATION_TYPE": "U", "NORAD_CAT_ID": 19071, "ELEMENT_SET_NO": 999, "REV_AT_EPOCH": 82290, "BSTAR": 0.00016227404, "MEAN_MOTION_DOT": 9e-07, "MEAN_MOTION_DDOT": 0}, "tle": {"line1": "1 19071U 88033B   25348.62381251  .00000090  00000+0  16227-3 0  9999", "line2": "2 19071  90.3217  16.5832 0188511 161.5626 319.4155 13.27954211822902"}}, "geometry": {"type": "Point", "coordinates": [-163.03181335584222, 48.121561574045415]}}, {"type": "Feature", "properties": {"norad_id": 19223, "name": "NOVA 2", "group": "nnss", "lat": -79.3351107478004, "lon": 78.20110323193035, "alt_km": 1180.4325491490526, "timestamp": "2025-12-15T10:55:21.411453+00:00", "meta": {"OBJECT_NAME": "NOVA 2", "OBJECT_ID": "1988-052A", "EPOCH": "2025-12-14T19:34:33.640032", "MEAN_MOTION": 13.22936089, "ECCENTRICITY": 0.00304156, "INCLINATION": 89.9872, "RA_OF_ASC_NODE": 78.2699, "ARG_OF_PERICENTER": 11.2504, "MEAN_ANOMALY": 106.1627, "EPHEMERIS_TYPE": 0, "CLASSIFICATION_TYPE": "U", "NORAD_CAT_ID": 19223, "ELEMENT_SET_NO": 999, "REV_AT_EPOCH": 80975, "BSTAR": 7.7581395e-05, "MEAN_MOTION_DOT": 4.1e-07, "MEAN_MOTION_DDOT": 0}, "tle": {"line1": "1 19223U 88052A   25348.81566713  .00000041  00000+0  77581-4 0  9995", "line2": "2 19223  89.9872  78.2699 0030415  11.2504 106.1627 13.22936089809754"}}, "geometry": {"type": "Point", "coordinates": [78.20110323193035, -79.3351107478004]}}, {"type": "Feature", "properties": {"norad_id": 19419, "name": "OSCAR 25", "group": "nnss", "lat": -8.71316245843334, "lon": -159.75203185607893, "alt_km": 1057.1446329848677, "timestamp": "2025-12-15T10:55:21.411466+00:00", "meta": {"OBJECT_NAME": "OSCAR 25", "OBJECT_ID": "1988-074A", "EPOCH": "2025-12-14T14:53:41.072064", "MEAN_MOTION": 13.42623602, "ECCENTRICITY": 0.00945281, "INCLINATION": 90.0346, "RA_OF_ASC_NODE": 20.2504, "ARG_OF_PERICENTER": 240.3846, "MEAN_ANOMALY": 237.9295, "EPHEMERIS_TYPE": 0, "CLASSIFICATION_TYPE": "U", "NORAD_CAT_ID": 19419, "ELEMENT_SET_NO": 999, "REV_AT_EPOCH": 82665, "BSTAR": 0.0001733704, "MEAN_MOTION_DOT": 1.09e-06, "MEAN_MOTION_DDOT": 0}, "tle": {"line1": "1 19419U 88074A   25348.62061426  .00000109  00000+0  17337-3 0  9993", "line2": "2 19419  90.0346  20.2504 0094528 240.3846 237.9295 13.42623602826659"}}, "geometry": {"type": "Point", "coordinates": [-159.75203185607893, -8.71316245843334]}}, {"type": "Feature", "properties": {"norad_id": 19420, "name": "OSCAR 31", "group": "nnss", "lat": 72.40626847121388, "lon": 20.489184171376557, "alt_km": 1157.8602984151676, "timestamp": "2025-12-15T10:55:21.411477+00:00", "meta": {"OBJECT_NAME": "OSCAR 31", "OBJECT_ID": "1988-074B", "EPOCH": "2025-12-14T15:28:32.252736", "MEAN_MOTION": 13.42584854, "ECCENTRICITY": 0.0092856, "INCLINATION": 90.0363, "RA_OF_ASC_NODE": 20.6008, "ARG_OF_PERICENTER": 234.4438, "MEAN_ANOMALY": 244.293, "EPHEMERIS_TYPE": 0, "CLASSIFICATION_TYPE": "U", "NORAD_CAT_ID": 19420, "ELEMENT_SET_NO": 999, "REV_AT_EPOCH": 82676, "BSTAR": 0.00015676281, "MEAN_MOTION_DOT": 9.9e-07, "MEAN_MOTION_DDOT": 0}, "tle": {"line1": "1 19420U 88074B   25348.64481774  .00000099  00000+0  15676-3 0  9991", "line2": "2 19420  90.0363  20.6008 0092856 234.4438 244.2930 13.42584854826760"}}, "geometry": {"type": "Point", "coordinates": [20.489184171376557, 72.40626847121388]}}]}